<?xml version="1.0" encoding="UTF-8"?>
<ndm xmlns:xsi="http://www.w3.org/2001/XMLSchema-instance" xsi:noNamespaceSchemaLocation="https://sanaregistry.org/r/ndmxml_unqualified/ndmxml-2.0.0-master-2.0.xsd">
<omm id="CCSDS_OMM_VERS" version="2.0">
<header><CREATION_DATE/><ORIGINATOR/></header><body><segment><metadata><OBJECT_NAME>QIANFAN-25</OBJECT_NAME><OBJECT_ID>2024-185G</OBJECT_ID><CENTER_NAME>EARTH</CENTER_NAME><REF_FRAME>TEME</REF_FRAME><TIME_SYSTEM>UTC</TIME_SYSTEM><MEAN_ELEMENT_THEORY>SGP4</MEAN_ELEMENT_THEORY></metadata><data><meanElements><EPOCH>2025-12-10T22:38:32.522208</EPOCH><MEAN_MOTION>14.05906362</MEAN_MOTION><ECCENTRICITY>.00081107</ECCENTRICITY><INCLINATION>88.9809</INCLINATION><RA_OF_ASC_NODE>78.3928</RA_OF_ASC_NODE><ARG_OF_PERICENTER>328.6452</ARG_OF_PERICENTER><MEAN_ANOMALY>31.4245</MEAN_ANOMALY></meanElements><tleParameters><EPHEMERIS_TYPE>0</EPHEMERIS_TYPE><CLASSIFICATION_TYPE>U</CLASSIFICATION_TYPE><NORAD_CAT_ID>61558</NORAD_CAT_ID><ELEMENT_SET_NO>999</ELEMENT_SET_NO><REV_AT_EPOCH>6925</REV_AT_EPOCH><BSTAR>.38123467E-3</BSTAR><MEAN_MOTION_DOT>.637E-5</MEAN_MOTION_DOT><MEAN_MOTION_DDOT>0</MEAN_MOTION_DDOT></tleParameters></data></segment></body></omm>
<omm id="CCSDS_OMM_VERS" version="2.0">
<header><CREATION_DATE/><ORIGINATOR/></header><body><segment><metadata><OBJECT_NAME>QIANFAN-26</OBJECT_NAME><OBJECT_ID>2024-185H</OBJECT_ID><CENTER_NAME>EARTH</CENTER_NAME><REF_FRAME>TEME</REF_FRAME><TIME_SYSTEM>UTC</TIME_SYSTEM><MEAN_ELEMENT_THEORY>SGP4</MEAN_ELEMENT_THEORY></metadata><data><meanElements><EPOCH>2025-12-10T22:23:32.069184</EPOCH><MEAN_MOTION>13.77811708</MEAN_MOTION><ECCENTRICITY>.00060767</ECCENTRICITY><INCLINATION>88.9813</INCLINATION><RA_OF_ASC_NODE>79.9455</RA_OF_ASC_NODE><ARG_OF_PERICENTER>36.1922</ARG_OF_PERICENTER><MEAN_ANOMALY>323.9655</MEAN_ANOMALY></meanElements><tleParameters><EPHEMERIS_TYPE>0</EPHEMERIS_TYPE><CLASSIFICATION_TYPE>U</CLASSIFICATION_TYPE><NORAD_CAT_ID>61559</NORAD_CAT_ID><ELEMENT_SET_NO>999</ELEMENT_SET_NO><REV_AT_EPOCH>6842</REV_AT_EPOCH><BSTAR>.37515816E-3</BSTAR><MEAN_MOTION_DOT>.388E-5</MEAN_MOTION_DOT><MEAN_MOTION_DDOT>0</MEAN_MOTION_DDOT></tleParameters></data></segment></body></omm>
<omm id="CCSDS_OMM_VERS" version="2.0">
<header><CREATION_DATE/><ORIGINATOR/></header><body><segment><metadata><OBJECT_NAME>QIANFAN-27</OBJECT_NAME><OBJECT_ID>2024-185J</OBJECT_ID><CENTER_NAME>EARTH</CENTER_NAME><REF_FRAME>TEME</REF_FRAME><TIME_SYSTEM>UTC</TIME_SYSTEM><MEAN_ELEMENT_THEORY>SGP4</MEAN_ELEMENT_THEORY></metadata><data><meanElements><EPOCH>2025-12-10T22:13:08.677632</EPOCH><MEAN_MOTION>14.27329947</MEAN_MOTION><ECCENTRICITY>.0005766</ECCENTRICITY><INCLINATION>88.9806</INCLINATION><RA_OF_ASC_NODE>77.1560</RA_OF_ASC_NODE><ARG_OF_PERICENTER>302.2151</ARG_OF_PERICENTER><MEAN_ANOMALY>57.8484</MEAN_ANOMALY></meanElements><tleParameters><EPHEMERIS_TYPE>0</EPHEMERIS_TYPE><CLASSIFICATION_TYPE>U</CLASSIFICATION_TYPE><NORAD_CAT_ID>61560</NORAD_CAT_ID><ELEMENT_SET_NO>999</ELEMENT_SET_NO><REV_AT_EPOCH>6990</REV_AT_EPOCH><BSTAR>.37456967E-3</BSTAR><MEAN_MOTION_DOT>.931E-5</MEAN_MOTION_DOT><MEAN_MOTION_DDOT>0</MEAN_MOTION_DDOT></tleParameters></data></segment></body></omm>
<omm id="CCSDS_OMM_VERS" version="2.0">
<header><CREATION_DATE/><ORIGINATOR/></header><body><segment><metadata><OBJECT_NAME>QIANFAN-28</OBJECT_NAME><OBJECT_ID>2024-185K</OBJECT_ID><CENTER_NAME>EARTH</CENTER_NAME><REF_FRAME>TEME</REF_FRAME><TIME_SYSTEM>UTC</TIME_SYSTEM><MEAN_ELEMENT_THEORY>SGP4</MEAN_ELEMENT_THEORY></metadata><data><meanElements><EPOCH>2025-12-10T21:48:46.384416</EPOCH><MEAN_MOTION>14.28029406</MEAN_MOTION><ECCENTRICITY>.00051219</ECCENTRICITY><INCLINATION>88.9825</INCLINATION><RA_OF_ASC_NODE>77.1611</RA_OF_ASC_NODE><ARG_OF_PERICENTER>301.3729</ARG_OF_PERICENTER><MEAN_ANOMALY>58.6964</MEAN_ANOMALY></meanElements><tleParameters><EPHEMERIS_TYPE>0</EPHEMERIS_TYPE><CLASSIFICATION_TYPE>U</CLASSIFICATION_TYPE><NORAD_CAT_ID>61561</NORAD_CAT_ID><ELEMENT_SET_NO>999</ELEMENT_SET_NO><REV_AT_EPOCH>6991</REV_AT_EPOCH><BSTAR>.57684272E-3</BSTAR><MEAN_MOTION_DOT>.1445E-4</MEAN_MOTION_DOT><MEAN_MOTION_DDOT>0</MEAN_MOTION_DDOT></tleParameters></data></segment></body></omm>
<omm id="CCSDS_OMM_VERS" version="2.0">
<header><CREATION_DATE/><ORIGINATOR/></header><body><segment><metadata><OBJECT_NAME>QIANFAN-29</OBJECT_NAME><OBJECT_ID>2024-185L</OBJECT_ID><CENTER_NAME>EARTH</CENTER_NAME><REF_FRAME>TEME</REF_FRAME><TIME_SYSTEM>UTC</TIME_SYSTEM><MEAN_ELEMENT_THEORY>SGP4</MEAN_ELEMENT_THEORY></metadata><data><meanElements><EPOCH>2025-12-10T21:17:58.621920</EPOCH><MEAN_MOTION>13.51010236</MEAN_MOTION><ECCENTRICITY>.00112999</ECCENTRICITY><INCLINATION>88.9790</INCLINATION><RA_OF_ASC_NODE>81.5017</RA_OF_ASC_NODE><ARG_OF_PERICENTER>63.8364</ARG_OF_PERICENTER><MEAN_ANOMALY>296.3948</MEAN_ANOMALY></meanElements><tleParameters><EPHEMERIS_TYPE>0</EPHEMERIS_TYPE><CLASSIFICATION_TYPE>U</CLASSIFICATION_TYPE><NORAD_CAT_ID>61562</NORAD_CAT_ID><ELEMENT_SET_NO>999</ELEMENT_SET_NO><REV_AT_EPOCH>6754</REV_AT_EPOCH><BSTAR>.38400152E-3</BSTAR><MEAN_MOTION_DOT>.26E-5</MEAN_MOTION_DOT><MEAN_MOTION_DDOT>0</MEAN_MOTION_DDOT></tleParameters></data></segment></body></omm>
<omm id="CCSDS_OMM_VERS" version="2.0">
<header><CREATION_DATE/><ORIGINATOR/></header><body><segment><metadata><OBJECT_NAME>QIANFAN-30</OBJECT_NAME><OBJECT_ID>2024-185M</OBJECT_ID><CENTER_NAME>EARTH</CENTER_NAME><REF_FRAME>TEME</REF_FRAME><TIME_SYSTEM>UTC</TIME_SYSTEM><MEAN_ELEMENT_THEORY>SGP4</MEAN_ELEMENT_THEORY></metadata><data><meanElements><EPOCH>2025-12-10T22:26:27.086208</EPOCH><MEAN_MOTION>13.49987869</MEAN_MOTION><ECCENTRICITY>.00085853</ECCENTRICITY><INCLINATION>88.9811</INCLINATION><RA_OF_ASC_NODE>81.0215</RA_OF_ASC_NODE><ARG_OF_PERICENTER>53.4223</ARG_OF_PERICENTER><MEAN_ANOMALY>306.7716</MEAN_ANOMALY></meanElements><tleParameters><EPHEMERIS_TYPE>0</EPHEMERIS_TYPE><CLASSIFICATION_TYPE>U</CLASSIFICATION_TYPE><NORAD_CAT_ID>61563</NORAD_CAT_ID><ELEMENT_SET_NO>999</ELEMENT_SET_NO><REV_AT_EPOCH>6782</REV_AT_EPOCH><BSTAR>.2389422E-3</BSTAR><MEAN_MOTION_DOT>.164E-5</MEAN_MOTION_DOT><MEAN_MOTION_DDOT>0</MEAN_MOTION_DDOT></tleParameters></data></segment></body></omm>
<omm id="CCSDS_OMM_VERS" version="2.0">
<header><CREATION_DATE/><ORIGINATOR/></header><body><segment><metadata><OBJECT_NAME>QIANFAN-31</OBJECT_NAME><OBJECT_ID>2024-185N</OBJECT_ID><CENTER_NAME>EARTH</CENTER_NAME><REF_FRAME>TEME</REF_FRAME><TIME_SYSTEM>UTC</TIME_SYSTEM><MEAN_ELEMENT_THEORY>SGP4</MEAN_ELEMENT_THEORY></metadata><data><meanElements><EPOCH>2025-12-10T21:56:14.565408</EPOCH><MEAN_MOTION>13.57966175</MEAN_MOTION><ECCENTRICITY>.00078311</ECCENTRICITY><INCLINATION>88.9794</INCLINATION><RA_OF_ASC_NODE>80.8286</RA_OF_ASC_NODE><ARG_OF_PERICENTER>49.0216</ARG_OF_PERICENTER><MEAN_ANOMALY>311.1615</MEAN_ANOMALY></meanElements><tleParameters><EPHEMERIS_TYPE>0</EPHEMERIS_TYPE><CLASSIFICATION_TYPE>U</CLASSIFICATION_TYPE><NORAD_CAT_ID>61564</NORAD_CAT_ID><ELEMENT_SET_NO>999</ELEMENT_SET_NO><REV_AT_EPOCH>6791</REV_AT_EPOCH><BSTAR>.3677758E-3</BSTAR><MEAN_MOTION_DOT>.278E-5</MEAN_MOTION_DOT><MEAN_MOTION_DDOT>0</MEAN_MOTION_DDOT></tleParameters></data></segment></body></omm>
<omm id="CCSDS_OMM_VERS" version="2.0">
<header><CREATION_DATE/><ORIGINATOR/></header><body><segment><metadata><OBJECT_NAME>QIANFAN-32</OBJECT_NAME><OBJECT_ID>2024-185P</OBJECT_ID><CENTER_NAME>EARTH</CENTER_NAME><REF_FRAME>TEME</REF_FRAME><TIME_SYSTEM>UTC</TIME_SYSTEM><MEAN_ELEMENT_THEORY>SGP4</MEAN_ELEMENT_THEORY></metadata><data><meanElements><EPOCH>2025-12-10T21:42:27.853920</EPOCH><MEAN_MOTION>13.50734888</MEAN_MOTION><ECCENTRICITY>.00109781</ECCENTRICITY><INCLINATION>88.9853</INCLINATION><RA_OF_ASC_NODE>81.1582</RA_OF_ASC_NODE><ARG_OF_PERICENTER>74.4331</ARG_OF_PERICENTER><MEAN_ANOMALY>285.8031</MEAN_ANOMALY></meanElements><tleParameters><EPHEMERIS_TYPE>0</EPHEMERIS_TYPE><CLASSIFICATION_TYPE>U</CLASSIFICATION_TYPE><NORAD_CAT_ID>61565</NORAD_CAT_ID><ELEMENT_SET_NO>999</ELEMENT_SET_NO><REV_AT_EPOCH>6779</REV_AT_EPOCH><BSTAR>.35922825E-3</BSTAR><MEAN_MOTION_DOT>.243E-5</MEAN_MOTION_DOT><MEAN_MOTION_DDOT>0</MEAN_MOTION_DDOT></tleParameters></data></segment></body></omm>

</ndm>
