QIANFAN-25              
1 61558U 24185G   25344.94343197  .00000637  00000+0  38123-3 0  9998
2 61558  88.9809  78.3928 0008110 328.6452  31.4245 14.05906362 69253
QIANFAN-26              
1 61559U 24185H   25344.93301006  .00000388  00000+0  37516-3 0  9999
2 61559  88.9813  79.9455 0006076  36.1922 323.9655 13.77811708 68422
QIANFAN-27              
1 61560U 24185J   25344.92579488  .00000931  00000+0  37457-3 0  9999
2 61560  88.9806  77.1560 0005766 302.2151  57.8484 14.27329947 69901
QIANFAN-28              
1 61561U 24185K   25344.90887019  .00001445  00000+0  57684-3 0  9995
2 61561  88.9825  77.1611 0005121 301.3729  58.6964 14.28029406 69917
QIANFAN-29              
1 61562U 24185L   25344.88748405  .00000260  00000+0  38400-3 0  9997
2 61562  88.9790  81.5017 0011299  63.8364 296.3948 13.51010236 67542
QIANFAN-30              
1 61563U 24185M   25344.93503572  .00000164  00000+0  23894-3 0  9992
2 61563  88.9811  81.0215 0008585  53.4223 306.7716 13.49987869 67827
QIANFAN-31              
1 61564U 24185N   25344.91405747  .00000278  00000+0  36778-3 0  9997
2 61564  88.9794  80.8286 0007831  49.0216 311.1615 13.57966175 67913
QIANFAN-32              
1 61565U 24185P   25344.90448905  .00000243  00000+0  35923-3 0  9993
2 61565  88.9853  81.1582 0010978  74.4331 285.8031 13.50734888 67791
